[{"OBJECT_NAME":"TRANSPORTER-10 OBJECT AG","OBJECT_ID":"2024-043AG","EPOCH":"2026-03-09T22:12:45.387648","MEAN_MOTION":15.30759727,"ECCENTRICITY":0.00093005,"INCLINATION":97.5471,"RA_OF_ASC_NODE":205.7101,"ARG_OF_PERICENTER":226.5958,"MEAN_ANOMALY":133.4509,"EPHEMERIS_TYPE":0,"CLASSIFICATION_TYPE":"U","NORAD_CAT_ID":59128,"ELEMENT_SET_NO":999,"REV_AT_EPOCH":11192,"BSTAR":0.00032170115,"MEAN_MOTION_DOT":9.498e-5,"MEAN_MOTION_DDOT":0},{"OBJECT_NAME":"STARLINK-34789","OBJECT_ID":"2025-161H","EPOCH":"2026-03-09T22:20:43.243584","MEAN_MOTION":15.30212421,"ECCENTRICITY":0.00010435,"INCLINATION":53.1587,"RA_OF_ASC_NODE":293.3074,"ARG_OF_PERICENTER":92.268,"MEAN_ANOMALY":267.844,"EPHEMERIS_TYPE":0,"CLASSIFICATION_TYPE":"U","NORAD_CAT_ID":65022,"ELEMENT_SET_NO":999,"REV_AT_EPOCH":3535,"BSTAR":0.00085396309,"MEAN_MOTION_DOT":0.00025028,"MEAN_MOTION_DDOT":0}]
